#dP2021  1 21  0  0  0.00000000      96 __u+U ITR00 FIT  IAC
## 2141 345600.00000000   900.00000000 59235 0.0000000000000
+  123   C01C02C03C04C05C06C07C08C09C10C11C12C13C14C16C19C20
+        C21C22C23C24C25C26C27C28C29C30C32C33C34C35C36C37C38
+        C39C40C43C44C45C46E01E02E03E04E05E07E08E09E11E12E13
+        E14E15E18E19E21E24E25E26E27E30E31E33E36G01G02G03G04
+        G05G06G07G08G09G10G11G12G13G14G15G16G17G18G19G20G21
+        G22G23G24G25G26G27G28G29G30G31G32J01J02J03R01R02R03
+        R04R05R06R07R08R09R10R11R12R13R14R15R16R17R18R19R20
+        R21R22R23R24  0  0  0  0  0  0  0  0  0  0  0  0  0
++        13 13 13 13 13  8  8  9  8  8  8  8  0  8  8  8  8
++         8  8  8  8  8  8  8  8  8  8  8  8  8  8  8  8 10
++        10 10  9  9  9  9  4  4  5  4  5  4  5  5  5  4  5
++         5  4  5  4  4  5  5  5  4  5  4  4  5  4  4  4  4
++         4  4  4  4  4  4  4  4  4  4  0  4  4  4  4  4  4
++         4  4  4  4  4  4  4  4  4  4  4  8  8  9  6  6  6
++         6  6 13  6  6  6 13  8  6  7  6  6  7  6  6  7  7
++         6  7 13  6  0  0  0  0  0  0  0  0  0  0  0  0  0
%c M  cc GPS ccc cccc cccc cccc cccc ccccc ccccc ccccc ccccc
%c cc cc ccc ccc cccc cccc cccc cccc ccccc ccccc ccccc ccccc
%f  0.0000000  0.000000000  0.00000000000  0.000000000000000
%f  0.0000000  0.000000000  0.00000000000  0.000000000000000
%i    0    0    0    0      0      0      0      0         0
%i    0    0    0    0      0      0      0      0         0
/* INFORMATION & ANALYSIS CENTER (IAC)            RAPID DATA
/* S/V CLOCKS ARE ALIGNED TO GNSS TIME                      
/* G:C1WC2W R:C1PC2P E:C1XC5X C:C2IC6I J:C1CC2S             
/* PCV:IGS14_2134 OL/AL:FES2004  NONE     YN ORB:CoN CLK:CoN
*  2021 01 21  9  0  0.00000000
PC01 -34374.679408  24469.837560    367.694642   -731.397447
PC02   4399.666948  41878.722330  -1162.073586    577.068815
PC03 -14722.966428  39471.778218  -1286.550993   -506.413248
PC04 -39663.733229  14373.676896     51.960731   -449.779756
PC05  21878.749620  36003.662366  -1285.826174   -595.417841
PC06 -14910.356312  38643.158645  -6025.527088     22.967334
PC07  -7998.942549  26802.847097  31895.102820   -248.001745
PC08 -24053.837079  23026.573615 -25979.748553   -918.839377
PC09  -5574.080804  40498.509898   9596.918659    788.723538
PC10   4768.114455  32220.285009  27197.164064   -100.283863
PC11  -1385.137650  24351.562024 -13527.208986   -901.020725
PC12 -13362.812077  24250.303970   3606.662747    743.864533
PC13      0.000000      0.000000      0.000000 999999.999999
PC14   9488.239304  24263.038159 -10048.273251    -48.287075
PC16 -14110.621253  39207.944857  -5607.386941   -667.009537
PC19 -16194.583159 -22695.921445   1046.378537    698.739614
PC20  -2441.038587 -22316.788857  16573.104530   -910.036195
PC21 -13408.670584   8579.163913 -22905.576137   -802.127443
PC22 -20918.365959  -9903.794258 -15574.591393   -851.744205
PC23  26932.888840   2086.480845   6981.770244   -879.835130
PC24  -7464.163051  16223.373937  21439.626735   -745.404490
PC25  14839.833153  12437.994418  20080.088269   -905.014356
PC26 -23331.432472  10895.461124  10794.200302    959.882800
PC27  17400.514419 -18115.158837 -12190.911360    469.993440
PC28  16633.717581    726.765852 -22386.747258   -119.158089
PC29  -6879.205593 -18819.216875  19423.161503    341.496035
PC30   7278.615750 -26544.013470   4679.698478    434.111202
PC32  13392.056123  -8658.554638  22912.279864   -885.199225
PC33  16292.573466  22637.873803  -1093.280380   -925.412341
PC34  -6868.860323  26507.879663  -5309.720964   -758.262424
PC35 -16614.137115   -526.026882  22411.301542   -455.585284
PC36 -14256.385129 -12897.104545 -20210.629097   -772.178874
PC37  24028.057941  -9923.370889 -10099.831379   -860.892868
PC38 -21389.209422  25283.139511 -26138.011607    125.189802
PC39 -10577.733764  40503.453751  -4389.306806     27.637986
PC40   -199.068408  27995.480324  31596.539626    123.424717
PC43   6570.284526  19213.872071 -19131.346735   -561.776045
PC44 -16892.273532  18465.472601  12308.568235     -2.342795
PC45 -26971.213945  -1940.922545  -6953.807113    340.952471
PC46   6424.872115 -16197.877536 -21786.065904    442.265003
PE01  28095.705620   4456.162227  -8159.747109  -1029.302453
PE02 -28097.251421  -4388.428057   8254.299268    192.609201
PE03 -17491.246958  -2116.373893 -23790.607475   -389.729387
PE04  10963.050201 -18945.095603  19927.168468   -693.277013
PE05 -13849.002319 -22263.044970 -13742.780609   -311.135046
PE07   2161.147437  29221.172303  -4225.324392   -490.480114
PE08 -10579.104036  19251.190229 -19848.859076   6058.844858
PE09  -2443.341798 -29205.955681   4102.396677   5791.961108
PE11   6690.330373 -21914.836600  18749.227734   6437.789173
PE12  21889.519871 -19895.019574   1337.153916   5395.953460
PE13  -7024.274352  21985.501566 -18517.875643    410.649137
PE14   6036.206738  28178.039497 -10782.482656  -1302.202129
PE15 -21801.475991  19972.403162  -1356.552022    833.230175
PE18   3410.018740 -25836.719475   -401.791119  -1423.279127
PE19  17482.042862   4784.628807  23400.012077    183.796576
PE21  23043.904728  15581.958982  10101.062611   -644.039776
PE24  -3651.099658 -18032.191261 -23206.952030   -701.045090
PE25 -22942.368575 -15652.296250 -10251.472671   -524.773273
PE26  12501.710218  10701.147923 -24591.954237   2240.505822
PE27   4401.460042  18058.501672  23035.052552     46.633782
PE30 -17447.600235   9382.771960  21991.319507   3245.614277
PE31  16683.907918  -9910.884982 -22342.597425   -477.555168
PE33  23730.546450  -6235.669426 -16548.931853   -465.038593
PE36 -11856.259554 -11076.787780  24768.866717    451.363856
PG01  -5613.872151  17398.933254 -19379.662062    776.443390
PG02  21904.067473 -14991.572286   1711.646454   -568.339773
PG03   5801.932467  18531.113516 -18246.753080    -61.902978
PG04  -1305.372734  26483.375050    924.321794   -174.377899
PG05  13811.113179  -8915.508678  20747.275302    -31.562667
PG06  23712.943460  -3899.825042 -11300.824010     -4.413916
PG07  10902.489446  11696.835173  21591.325142     29.662177
PG08  -5424.346172  24871.957000   7031.872585     -7.394484
PG09   7845.192607  22423.329651  11790.030717   -314.986214
PG10 -23771.504722 -11214.430194  -4612.433572    -43.958284
PG11  -9039.207303  23984.029035  -8097.027703    -47.019710
PG12   -823.774781 -17586.329861 -20176.638296      9.983899
PG13  12973.776984 -18231.707460  14078.550304     88.267063
PG14  22816.041324  13229.285596  -3184.453340     88.580176
PG15      0.000000      0.000000      0.000000 999999.999999
PG16 -15394.099337   5861.402801  20705.170398   -268.246629
PG17  13537.147291   7132.847354 -21276.642882    382.952015
PG18 -12884.892249  -9832.363990  21048.213400    342.731748
PG19  15115.634580  -1361.167317 -22070.137628    -49.076299
PG20 -20362.490575 -15407.473372   7738.884145    525.067211
PG21 -13272.145956  18580.804557 -12473.445248     88.685435
PG22  -2824.545125  15911.669633 -20899.985793   -694.359604
PG23 -19961.763988 -16580.358150   5729.196425    116.826505
PG24   9187.782273 -19281.787719 -15773.521141      3.395186
PG25 -14641.724066 -19040.287150 -11889.764871     64.169264
PG26 -22572.949549  -1237.415707  14103.523790     33.127158
PG27 -12199.718765  15867.870778  17117.583985    -60.376592
PG28  22501.497227  12340.027515  -5883.539010    626.770012
PG29  -5142.792235 -23285.347948  11615.680552   -279.884210
PG30  20411.912836   3724.807682  16749.519814   -372.327212
PG31 -24780.563807   5252.748617  -8817.274390    -95.212119
PG32 -14786.139493  -5694.416770 -21245.743983     15.376864
PJ01 -20227.890187  22326.930852 -24938.209019   -337.236096
PJ02 -29669.777559  21148.043737  26071.706585      0.940153
PJ03 -30263.081066  27814.348845  14758.293819     -0.195196
PR01   -378.310138  18143.456455 -17933.722691     73.799227
PR02  11618.498455  22635.932585   1312.092656    463.744851
PR03  14827.352312  11810.175355  17077.555580     29.528166
PR04   9422.881288  -5391.746419  23105.312505     70.845492
PR05  -1114.207493 -19687.498362  16203.197802     65.113158
PR06 -12626.307370 -22070.761254  -2220.706321    191.353182
PR07 -14766.643151 -11387.050035 -17396.654619    -42.226250
PR08  -9506.529581   5430.660396 -22988.285193    -56.968226
PR09 -13063.544763 -10262.844466 -19318.558384     19.756097
PR10 -24503.037995  -4168.016992  -5920.739951    -65.714305
PR11 -22106.359335   4483.602951  11912.348398      4.318662
PR12  -6407.699420  10299.293120  22465.288024    198.426413
PR13  12723.178913  10074.264511  19657.955298    -49.608940
PR14  24706.589340   3977.109113   4971.986296     60.092142
PR15  21979.695505  -4349.630746 -12168.785854    105.792043
PR16   5057.857247 -10760.178987 -22578.330884    -10.440338
PR17  12203.072654    144.762156 -22377.562680    393.123183
PR18  16809.267333 -14823.247079 -12211.560452     63.899560
PR19  13371.828543 -21396.860895   3747.540937   -128.790638
PR20    343.686017 -15727.275554  20109.470566   -431.608479
PR21 -12738.248139    997.456590  22089.148445   -181.930527
PR22 -16817.648701  15447.528679  11258.296920    -93.639462
PR23  -8840.665745  21322.937847 -10852.117033    360.846420
PR24    726.216548  15468.729242 -20249.331779     28.581073
EOF
